{"type": "FeatureCollection", "features": [ {"type": "Feature", "properties": {"norad_id": 38166, "name": "FENGYUN 1C DEB", "group": "fengyun-1c-debris", "lat": -60.268588326598405, "lon": 112.91623594002856, "alt_km": 792.9753987444465, "timestamp": "2025-12-19T06:59:44.198148+00:00", "meta": {"OBJECT_NAME": "FENGYUN 1C DEB", "OBJECT_ID": "1999-025ERP", "EPOCH": "2025-12-18T06:06:37.368288", "MEAN_MOTION": 14.31016389, "ECCENTRICITY": 0.00519289, "INCLINATION": 99.0782, "RA_OF_ASC_NODE": 95.5762, "ARG_OF_PERICENTER": 28.0617, "MEAN_ANOMALY": 332.3346, "EPHEMERIS_TYPE": 0, "CLASSIFICATION_TYPE": "U", "NORAD_CAT_ID": 38166, "ELEMENT_SET_NO": 999, "REV_AT_EPOCH": 63851, "BSTAR": 0.0021062035, "MEAN_MOTION_DOT": 5.582e-05, "MEAN_MOTION_DDOT": 0}, "tle": {"line1": "1 38166U 99025ERP 25352.25459917  .00005582  00000+0  21062-2 0  9990", "line2": "2 38166  99.0782  95.5762 0051928  28.0617 332.3346 14.31016389638517"}}, "geometry": {"type": "Point", "coordinates": [112.91623594002856, -60.268588326598405]}}, {"type": "Feature", "properties": {"norad_id": 38169, "name": "FENGYUN 1C DEB", "group": "fengyun-1c-debris", "lat": -47.61615888648939, "lon": -21.84615979896799, "alt_km": 665.1939294284866, "timestamp": "2025-12-19T06:59:44.198158+00:00", "meta": {"OBJECT_NAME": "FENGYUN 1C DEB", "OBJECT_ID": "1999-025ERS", "EPOCH": "2025-12-17T04:37:40.598400", "MEAN_MOTION": 14.71570377, "ECCENTRICITY": 0.00320132, "INCLINATION": 98.9779, "RA_OF_ASC_NODE": 325.865, "ARG_OF_PERICENTER": 54.7995, "MEAN_ANOMALY": 305.6199, "EPHEMERIS_TYPE": 0, "CLASSIFICATION_TYPE": "U", "NORAD_CAT_ID": 38169, "ELEMENT_SET_NO": 999, "REV_AT_EPOCH": 61334, "BSTAR": 0.002130707, "MEAN_MOTION_DOT": 0.00013312, "MEAN_MOTION_DDOT": 0}, "tle": {"line1": "1 38169U 99025ERS 25351.19283100  .00013312  00000+0  21307-2 0  9996", "line2": "2 38169  98.9779 325.8650 0032013  54.7995 305.6199 14.71570377613347"}}, "geometry": {"type": "Point", "coordinates": [-21.84615979896799, -47.61615888648939]}}, {"type": "Feature", "properties": {"norad_id": 38173, "name": "FENGYUN 1C DEB", "group": "fengyun-1c-debris", "lat": 0.5934492870396794, "lon": 73.90734171502139, "alt_km": 760.3416385514556, "timestamp": "2025-12-19T06:59:44.198168+00:00", "meta": {"OBJECT_NAME": "FENGYUN 1C DEB", "OBJECT_ID": "1999-025ERW", "EPOCH": "2025-12-16T11:20:48.017472", "MEAN_MOTION": 14.37192423, "ECCENTRICITY": 0.01631615, "INCLINATION": 99.0007, "RA_OF_ASC_NODE": 250.8645, "ARG_OF_PERICENTER": 101.6732, "MEAN_ANOMALY": 260.2814, "EPHEMERIS_TYPE": 0, "CLASSIFICATION_TYPE": "U", "NORAD_CAT_ID": 38173, "ELEMENT_SET_NO": 999, "REV_AT_EPOCH": 60697, "BSTAR": 0.00064310917, "MEAN_MOTION_DOT": 2.179e-05, "MEAN_MOTION_DDOT": 0}, "tle": {"line1": "1 38173U 99025ERW 25350.47277798  .00002179  00000+0  64311-3 0  9999", "line2": "2 38173  99.0007 250.8645 0163161 101.6732 260.2814 14.37192423606974"}}, "geometry": {"type": "Point", "coordinates": [73.90734171502139, 0.5934492870396794]}}, {"type": "Feature", "properties": {"norad_id": 38493, "name": "FENGYUN 1C DEB", "group": "fengyun-1c-debris", "lat": 54.99066191599822, "lon": -60.933596061043225, "alt_km": 1334.5572620561197, "timestamp": "2025-12-19T06:59:44.198178+00:00", "meta": {"OBJECT_NAME": "FENGYUN 1C DEB", "OBJECT_ID": "1999-025ESC", "EPOCH": "2025-12-13T14:58:26.647392", "MEAN_MOTION": 13.62319496, "ECCENTRICITY": 0.04264901, "INCLINATION": 99.0796, "RA_OF_ASC_NODE": 306.9671, "ARG_OF_PERICENTER": 242.9047, "MEAN_ANOMALY": 112.7989, "EPHEMERIS_TYPE": 0, "CLASSIFICATION_TYPE": "U", "NORAD_CAT_ID": 38493, "ELEMENT_SET_NO": 999, "REV_AT_EPOCH": 56510, "BSTAR": 0.00047974908, "MEAN_MOTION_DOT": 6.42e-06, "MEAN_MOTION_DDOT": 0}, "tle": {"line1": "1 38493U 99025ESC 25347.62391953  .00000642  00000+0  47975-3 0  9997", "line2": "2 38493  99.0796 306.9671 0426490 242.9047 112.7989 13.62319496565102"}}, "geometry": {"type": "Point", "coordinates": [-60.933596061043225, 54.99066191599822]}}, {"type": "Feature", "properties": {"norad_id": 38494, "name": "FENGYUN 1C DEB", "group": "fengyun-1c-debris", "lat": -63.81963277281987, "lon": 105.44278510462986, "alt_km": 965.1697113732325, "timestamp": "2025-12-19T06:59:44.198188+00:00", "meta": {"OBJECT_NAME": "FENGYUN 1C DEB", "OBJECT_ID": "1999-025ESD", "EPOCH": "2025-12-18T02:22:10.646112", "MEAN_MOTION": 14.00352108, "ECCENTRICITY": 0.03839074, "INCLINATION": 98.4422, "RA_OF_ASC_NODE": 301.9205, "ARG_OF_PERICENTER": 354.1379, "MEAN_ANOMALY": 5.5359, "EPHEMERIS_TYPE": 0, "CLASSIFICATION_TYPE": "U", "NORAD_CAT_ID": 38494, "ELEMENT_SET_NO": 999, "REV_AT_EPOCH": 7229, "BSTAR": 0.0041826828, "MEAN_MOTION_DOT": 0.00011743, "MEAN_MOTION_DDOT": 0}, "tle": {"line1": "1 38494U 99025ESD 25352.09873433  .00011743  00000+0  41827-2 0  9996", "line2": "2 38494  98.4422 301.9205 0383907 354.1379   5.5359 14.00352108 72292"}}, "geometry": {"type": "Point", "coordinates": [105.44278510462986, -63.81963277281987]}}, {"type": "Feature", "properties": {"norad_id": 38495, "name": "FENGYUN 1C DEB", "group": "fengyun-1c-debris", "lat": -0.3602285435165387, "lon": 9.380498353806729, "alt_km": 1099.8231235789117, "timestamp": "2025-12-19T06:59:44.198198+00:00", "meta": {"OBJECT_NAME": "FENGYUN 1C DEB", "OBJECT_ID": "1999-025ESE", "EPOCH": "2025-12-02T06:20:41.771904", "MEAN_MOTION": 13.69106573, "ECCENTRICITY": 0.0252581, "INCLINATION": 99.1709, "RA_OF_ASC_NODE": 353.1036, "ARG_OF_PERICENTER": 165.9119, "MEAN_ANOMALY": 194.9245, "EPHEMERIS_TYPE": 0, "CLASSIFICATION_TYPE": "U", "NORAD_CAT_ID": 38495, "ELEMENT_SET_NO": 999, "REV_AT_EPOCH": 60969, "BSTAR": 0.0025866, "MEAN_MOTION_DOT": 2.759e-05, "MEAN_MOTION_DDOT": 0}, "tle": {"line1": "1 38495U 99025ESE 25336.26437236  .00002759  00000+0  25866-2 0  9997", "line2": "2 38495  99.1709 353.1036 0252581 165.9119 194.9245 13.69106573609697"}}, "geometry": {"type": "Point", "coordinates": [9.380498353806729, -0.3602285435165387]}}, {"type": "Feature", "properties": {"norad_id": 38496, "name": "FENGYUN 1C DEB", "group": "fengyun-1c-debris", "lat": 7.272894194026327, "lon": 1.7293871550731565, "alt_km": 808.0531434111963, "timestamp": "2025-12-19T06:59:44.198208+00:00", "meta": {"OBJECT_NAME": "FENGYUN 1C DEB", "OBJECT_ID": "1999-025ESF", "EPOCH": "2025-12-12T06:21:34.809408", "MEAN_MOTION": 14.09997011, "ECCENTRICITY": 0.00778076, "INCLINATION": 98.7646, "RA_OF_ASC_NODE": 356.0127, "ARG_OF_PERICENTER": 7.8363, "MEAN_ANOMALY": 352.4004, "EPHEMERIS_TYPE": 0, "CLASSIFICATION_TYPE": "U", "NORAD_CAT_ID": 38496, "ELEMENT_SET_NO": 999, "REV_AT_EPOCH": 81014, "BSTAR": 0.001223388, "MEAN_MOTION_DOT": 2.177e-05, "MEAN_MOTION_DDOT": 0}, "tle": {"line1": "1 38496U 99025ESF 25346.26498622  .00002177  00000+0  12234-2 0  9994", "line2": "2 38496  98.7646 356.0127 0077807   7.8363 352.4004 14.09997011810145"}}, "geometry": {"type": "Point", "coordinates": [1.7293871550731565, 7.272894194026327]}}, {"type": "Feature", "properties": {"norad_id": 38498, "name": "FENGYUN 1C DEB", "group": "fengyun-1c-debris", "lat": 31.523762177555135, "lon": 6.821127531043581, "alt_km": 884.062673605149, "timestamp": "2025-12-19T06:59:44.198218+00:00", "meta": {"OBJECT_NAME": "FENGYUN 1C DEB", "OBJECT_ID": "1999-025ESH", "EPOCH": "2025-12-16T19:35:11.968800", "MEAN_MOTION": 12.96623618, "ECCENTRICITY": 0.05558926, "INCLINATION": 99.6982, "RA_OF_ASC_NODE": 10.6357, "ARG_OF_PERICENTER": 62.8897, "MEAN_ANOMALY": 302.779, "EPHEMERIS_TYPE": 0, "CLASSIFICATION_TYPE": "U", "NORAD_CAT_ID": 38498, "ELEMENT_SET_NO": 999, "REV_AT_EPOCH": 53796, "BSTAR": 0.0025835338, "MEAN_MOTION_DOT": 1.475e-05, "MEAN_MOTION_DDOT": 0}, "tle": {"line1": "1 38498U 99025ESH 25350.81611075  .00001475  00000+0  25835-2 0  9992", "line2": "2 38498  99.6982  10.6357 0555892  62.8897 302.7790 12.96623618537965"}}, "geometry": {"type": "Point", "coordinates": [6.821127531043581, 31.523762177555135]}}, {"type": "Feature", "properties": {"norad_id": 38510, "name": "FENGYUN 1C DEB", "group": "fengyun-1c-debris", "lat": 49.194147754958124, "lon": -7.978550878333286, "alt_km": 831.6331599193791, "timestamp": "2025-12-19T06:59:44.198228+00:00", "meta": {"OBJECT_NAME": "FENGYUN 1C DEB", "OBJECT_ID": "1999-025ESV", "EPOCH": "2025-12-16T07:23:50.761824", "MEAN_MOTION": 14.13330157, "ECCENTRICITY": 0.00990126, "INCLINATION": 98.6018, "RA_OF_ASC_NODE": 359.2503, "ARG_OF_PERICENTER": 139.579, "MEAN_ANOMALY": 221.2794, "EPHEMERIS_TYPE": 0, "CLASSIFICATION_TYPE": "U", "NORAD_CAT_ID": 38510, "ELEMENT_SET_NO": 999, "REV_AT_EPOCH": 88720, "BSTAR": 0.00055421528, "MEAN_MOTION_DOT": 1.048e-05, "MEAN_MOTION_DDOT": 0}, "tle": {"line1": "1 38510U 99025ESV 25350.30822641  .00001048  00000+0  55422-3 0  9996", "line2": "2 38510  98.6018 359.2503 0099012 139.5790 221.2794 14.13330157887203"}}, "geometry": {"type": "Point", "coordinates": [-7.978550878333286, 49.194147754958124]}}, {"type": "Feature", "properties": {"norad_id": 38512, "name": "FENGYUN 1C DEB", "group": "fengyun-1c-debris", "lat": -65.41025581886699, "lon": 35.52339300996231, "alt_km": 1147.8453698016701, "timestamp": "2025-12-19T06:59:44.198237+00:00", "meta": {"OBJECT_NAME": "FENGYUN 1C DEB", "OBJECT_ID": "1999-025ESX", "EPOCH": "2025-12-10T03:21:08.986176", "MEAN_MOTION": 13.7397021, "ECCENTRICITY": 0.02264501, "INCLINATION": 98.3804, "RA_OF_ASC_NODE": 226.2794, "ARG_OF_PERICENTER": 112.1956, "MEAN_ANOMALY": 250.339, "EPHEMERIS_TYPE": 0, "CLASSIFICATION_TYPE": "U", "NORAD_CAT_ID": 38512, "ELEMENT_SET_NO": 999, "REV_AT_EPOCH": 59534, "BSTAR": 0.0014232555, "MEAN_MOTION_DOT": 1.573e-05, "MEAN_MOTION_DDOT": 0}, "tle": {"line1": "1 38512U 99025ESX 25344.13968734  .00001573  00000+0  14233-2 0  9993", "line2": "2 38512  98.3804 226.2794 0226450 112.1956 250.3390 13.73970210595340"}}, "geometry": {"type": "Point", "coordinates": [35.52339300996231, -65.41025581886699]}}]}